{
 "type": "FeatureCollection",
 "properties": {
  "자료": "가상 예시자료. 실제 사업과 관계없음",
  "좌표계": "WGS84 경위도",
  "설명": "블록 경계는 계획 도면에서 옮겨 그린 것으로 가정한 가상 도형"
 },
 "features": [
  {
   "type": "Feature",
   "properties": {
    "블록": "A1",
    "용도": "산업시설용지",
    "면적_㎡": 62000,
    "획지수": 3,
    "색상": "#bf7fff"
   },
   "geometry": {
    "type": "Polygon",
    "coordinates": [
     [
      [
       127.9002238,
       36.62018
      ],
      [
       127.9024623,
       36.62018
      ],
      [
       127.9024623,
       36.6229694
      ],
      [
       127.9002238,
       36.6229694
      ],
      [
       127.9002238,
       36.62018
      ]
     ]
    ]
   }
  },
  {
   "type": "Feature",
   "properties": {
    "블록": "A2",
    "용도": "산업시설용지",
    "면적_㎡": 58900,
    "획지수": 4,
    "색상": "#bf7fff"
   },
   "geometry": {
    "type": "Polygon",
    "coordinates": [
     [
      [
       127.9026862,
       36.62018
      ],
      [
       127.9048127,
       36.62018
      ],
      [
       127.9048127,
       36.6229694
      ],
      [
       127.9026862,
       36.6229694
      ],
      [
       127.9026862,
       36.62018
      ]
     ]
    ]
   }
  },
  {
   "type": "Feature",
   "properties": {
    "블록": "B1",
    "용도": "산업시설용지",
    "면적_㎡": 62000,
    "획지수": 2,
    "색상": "#bf7fff"
   },
   "geometry": {
    "type": "Polygon",
    "coordinates": [
     [
      [
       127.9051485,
       36.62018
      ],
      [
       127.907387,
       36.62018
      ],
      [
       127.907387,
       36.6229694
      ],
      [
       127.9051485,
       36.6229694
      ],
      [
       127.9051485,
       36.62018
      ]
     ]
    ]
   }
  },
  {
   "type": "Feature",
   "properties": {
    "블록": "B2",
    "용도": "산업시설용지",
    "면적_㎡": 62000,
    "획지수": 3,
    "색상": "#bf7fff"
   },
   "geometry": {
    "type": "Polygon",
    "coordinates": [
     [
      [
       127.9076108,
       36.62018
      ],
      [
       127.9098493,
       36.62018
      ],
      [
       127.9098493,
       36.6229694
      ],
      [
       127.9076108,
       36.6229694
      ],
      [
       127.9076108,
       36.62018
      ]
     ]
    ]
   }
  },
  {
   "type": "Feature",
   "properties": {
    "블록": "C1",
    "용도": "지원시설",
    "면적_㎡": 57600,
    "획지수": 2,
    "색상": "#ff7fff"
   },
   "geometry": {
    "type": "Polygon",
    "coordinates": [
     [
      [
       127.9002238,
       36.6232394
      ],
      [
       127.9022385,
       36.6232394
      ],
      [
       127.9022385,
       36.6261188
      ],
      [
       127.9002238,
       36.6261188
      ],
      [
       127.9002238,
       36.6232394
      ]
     ]
    ]
   }
  },
  {
   "type": "Feature",
   "properties": {
    "블록": "P1",
    "용도": "공원",
    "면적_㎡": 67200,
    "획지수": 1,
    "색상": "#00c800"
   },
   "geometry": {
    "type": "Polygon",
    "coordinates": [
     [
      [
       127.9024623,
       36.6232394
      ],
      [
       127.9048127,
       36.6232394
      ],
      [
       127.9048127,
       36.6261188
      ],
      [
       127.9024623,
       36.6261188
      ],
      [
       127.9024623,
       36.6232394
      ]
     ]
    ]
   }
  },
  {
   "type": "Feature",
   "properties": {
    "블록": "D1",
    "용도": "연구시설용지",
    "면적_㎡": 116675,
    "획지수": 2,
    "색상": "#00c8c8"
   },
   "geometry": {
    "type": "Polygon",
    "coordinates": [
     [
      [
       127.9051485,
       36.6232394
      ],
      [
       127.9098493,
       36.6232394
      ],
      [
       127.9098493,
       36.6244246
      ],
      [
       127.9077419,
       36.6261188
      ],
      [
       127.9051485,
       36.6261188
      ],
      [
       127.9051485,
       36.6232394
      ]
     ]
    ]
   }
  }
 ]
}