{
 "type": "FeatureCollection",
 "properties": {
  "자료": "가상 예시자료. 실제 사업과 관계없음",
  "좌표계": "WGS84 경위도"
 },
 "features": [
  {
   "type": "Feature",
   "properties": {
    "용도": "구역계",
    "면적_㎡": 610000,
    "색상": "#d32f2f"
   },
   "geometry": {
    "type": "Polygon",
    "coordinates": [
     [
      [
       127.9,
       36.62
      ],
      [
       127.9100731,
       36.62
      ],
      [
       127.9100731,
       36.6244991
      ],
      [
       127.9078347,
       36.6262988
      ],
      [
       127.9,
       36.6262988
      ],
      [
       127.9,
       36.62
      ]
     ]
    ]
   }
  },
  {
   "type": "Feature",
   "properties": {
    "용도": "산업시설용지",
    "면적_㎡": 244900,
    "색상": "#bf7fff"
   },
   "geometry": {
    "type": "MultiPolygon",
    "coordinates": [
     [
      [
       [
        127.9002238,
        36.62018
       ],
       [
        127.9024623,
        36.62018
       ],
       [
        127.9024623,
        36.6229694
       ],
       [
        127.9002238,
        36.6229694
       ],
       [
        127.9002238,
        36.62018
       ]
      ]
     ],
     [
      [
       [
        127.9026862,
        36.62018
       ],
       [
        127.9048127,
        36.62018
       ],
       [
        127.9048127,
        36.6229694
       ],
       [
        127.9026862,
        36.6229694
       ],
       [
        127.9026862,
        36.62018
       ]
      ]
     ],
     [
      [
       [
        127.9051485,
        36.62018
       ],
       [
        127.907387,
        36.62018
       ],
       [
        127.907387,
        36.6229694
       ],
       [
        127.9051485,
        36.6229694
       ],
       [
        127.9051485,
        36.62018
       ]
      ]
     ],
     [
      [
       [
        127.9076108,
        36.62018
       ],
       [
        127.9098493,
        36.62018
       ],
       [
        127.9098493,
        36.6229694
       ],
       [
        127.9076108,
        36.6229694
       ],
       [
        127.9076108,
        36.62018
       ]
      ]
     ]
    ]
   }
  },
  {
   "type": "Feature",
   "properties": {
    "용도": "지원시설",
    "면적_㎡": 57600,
    "색상": "#ff7fff"
   },
   "geometry": {
    "type": "MultiPolygon",
    "coordinates": [
     [
      [
       [
        127.9002238,
        36.6232394
       ],
       [
        127.9022385,
        36.6232394
       ],
       [
        127.9022385,
        36.6261188
       ],
       [
        127.9002238,
        36.6261188
       ],
       [
        127.9002238,
        36.6232394
       ]
      ]
     ]
    ]
   }
  },
  {
   "type": "Feature",
   "properties": {
    "용도": "공원",
    "면적_㎡": 67200,
    "색상": "#00c800"
   },
   "geometry": {
    "type": "MultiPolygon",
    "coordinates": [
     [
      [
       [
        127.9024623,
        36.6232394
       ],
       [
        127.9048127,
        36.6232394
       ],
       [
        127.9048127,
        36.6261188
       ],
       [
        127.9024623,
        36.6261188
       ],
       [
        127.9024623,
        36.6232394
       ]
      ]
     ]
    ]
   }
  },
  {
   "type": "Feature",
   "properties": {
    "용도": "연구시설용지",
    "면적_㎡": 116675,
    "색상": "#00c8c8"
   },
   "geometry": {
    "type": "MultiPolygon",
    "coordinates": [
     [
      [
       [
        127.9051485,
        36.6232394
       ],
       [
        127.9098493,
        36.6232394
       ],
       [
        127.9098493,
        36.6244246
       ],
       [
        127.9077419,
        36.6261188
       ],
       [
        127.9051485,
        36.6261188
       ],
       [
        127.9051485,
        36.6232394
       ]
      ]
     ]
    ]
   }
  },
  {
   "type": "Feature",
   "properties": {
    "용도": "도로",
    "면적_㎡": 123625,
    "색상": "#f2f2f2"
   },
   "geometry": {
    "type": "Polygon",
    "coordinates": [
     [
      [
       127.9,
       36.62
      ],
      [
       127.9100731,
       36.62
      ],
      [
       127.9100731,
       36.6244991
      ],
      [
       127.9078347,
       36.6262988
      ],
      [
       127.9,
       36.6262988
      ],
      [
       127.9,
       36.62
      ]
     ],
     [
      [
       127.9002238,
       36.6229694
      ],
      [
       127.9024623,
       36.6229694
      ],
      [
       127.9024623,
       36.62018
      ],
      [
       127.9002238,
       36.62018
      ],
      [
       127.9002238,
       36.6229694
      ]
     ],
     [
      [
       127.9026862,
       36.6229694
      ],
      [
       127.9048127,
       36.6229694
      ],
      [
       127.9048127,
       36.62018
      ],
      [
       127.9026862,
       36.62018
      ],
      [
       127.9026862,
       36.6229694
      ]
     ],
     [
      [
       127.9051485,
       36.6229694
      ],
      [
       127.907387,
       36.6229694
      ],
      [
       127.907387,
       36.62018
      ],
      [
       127.9051485,
       36.62018
      ],
      [
       127.9051485,
       36.6229694
      ]
     ],
     [
      [
       127.9076108,
       36.6229694
      ],
      [
       127.9098493,
       36.6229694
      ],
      [
       127.9098493,
       36.62018
      ],
      [
       127.9076108,
       36.62018
      ],
      [
       127.9076108,
       36.6229694
      ]
     ],
     [
      [
       127.9002238,
       36.6261188
      ],
      [
       127.9022385,
       36.6261188
      ],
      [
       127.9022385,
       36.6232394
      ],
      [
       127.9002238,
       36.6232394
      ],
      [
       127.9002238,
       36.6261188
      ]
     ],
     [
      [
       127.9024623,
       36.6261188
      ],
      [
       127.9048127,
       36.6261188
      ],
      [
       127.9048127,
       36.6232394
      ],
      [
       127.9024623,
       36.6232394
      ],
      [
       127.9024623,
       36.6261188
      ]
     ],
     [
      [
       127.9051485,
       36.6261188
      ],
      [
       127.9077419,
       36.6261188
      ],
      [
       127.9098493,
       36.6244246
      ],
      [
       127.9098493,
       36.6232394
      ],
      [
       127.9051485,
       36.6232394
      ],
      [
       127.9051485,
       36.6261188
      ]
     ]
    ]
   }
  }
 ]
}